$$SOE
2461288.500000000, A.D. 2026-Sep-05 00:00:00.0000, 1.982056957780243E+08, 2.215133810317178E+08, 1.764634510695426E+07,
2461295.500000000, A.D. 2026-Sep-12 00:00:00.0000, 1.886230508539107E+08, 2.280492506782621E+08, 2.251465835539177E+07,
2461302.500000000, A.D. 2026-Sep-19 00:00:00.0000, 1.786902438799968E+08, 2.341617296376127E+08, 2.734115790027760E+07,
2461309.500000000, A.D. 2026-Sep-26 00:00:00.0000, 1.684223961770974E+08, 2.398351224976523E+08, 3.211637531675987E+07,
2461316.500000000, A.D. 2026-Oct-03 00:00:00.0000, 1.578355337810634E+08, 2.450541973014904E+08, 3.683074118686551E+07,
2461323.500000000, A.D. 2026-Oct-10 00:00:00.0000, 1.469465965066879E+08, 2.498042338577991E+08, 4.147459852008486E+07,
2461330.500000000, A.D. 2026-Oct-17 00:00:00.0000, 1.357734447582156E+08, 2.540710746605613E+08, 4.603821768196060E+07,
2461337.500000000, A.D. 2026-Oct-24 00:00:00.0000, 1.243348637563336E+08, 2.578411783608507E+08, 5.051181291496347E+07,
2461344.500000000, A.D. 2026-Oct-31 00:00:00.0000, 1.126505649057823E+08, 2.611016756576063E+08, 5.488556052226311E+07,
2461351.500000000, A.D. 2026-Nov-07 00:00:00.0000, 1.007411842515977E+08, 2.638404275798349E+08, 5.914961877039015E+07,
2461358.500000000, A.D. 2026-Nov-14 00:00:00.0000, 8.862827782567027E+07, 2.660460869047609E+08, 6.329414963959372E+07,
2461365.500000000, A.D. 2026-Nov-21 00:00:00.0000, 7.633431166961221E+07, 2.677081631863180E+08, 6.730934270079847E+07,
2461372.500000000, A.D. 2026-Nov-28 00:00:00.0000, 6.388264510452618E+07, 2.688170881014725E+08, 7.118544099171051E+07,
2461379.500000000, A.D. 2026-Dec-05 00:00:00.0000, 5.129751041558469E+07, 2.693642801462003E+08, 7.491276851795651E+07,
2461386.500000000, A.D. 2026-Dec-12 00:00:00.0000, 3.860398868049232E+07, 2.693422114373947E+08, 7.848175961299008E+07,
2461393.500000000, A.D. 2026-Dec-19 00:00:00.0000, 2.582797942221712E+07, 2.687444762081443E+08, 8.188299030301398E+07,
2461400.500000000, A.D. 2026-Dec-26 00:00:00.0000, 1.299616353105135E+07, 2.675658596562543E+08, 8.510721157396625E+07,
2461407.500000000, A.D. 2027-Jan-02 00:00:00.0000, 1.359593522051991E+05, 2.658024064184929E+08, 8.814538442864518E+07,
2461414.500000000, A.D. 2027-Jan-09 00:00:00.0000, -1.272452828838131E+07, 2.634514880840747E+08, 9.098871662237504E+07,
2461421.500000000, A.D. 2027-Jan-16 00:00:00.0000, -2.555656638417334E+07, 2.605118690823791E+08, 9.362870093929558E+07,
2461428.500000000, A.D. 2027-Jan-23 00:00:00.0000, -3.833085956886245E+07, 2.569837701679955E+08, 9.605715483064364E+07,
2461435.500000000, A.D. 2027-Jan-30 00:00:00.0000, -5.101762343936019E+07, 2.528689286590306E+08, 9.826626118269005E+07,
2461442.500000000, A.D. 2027-Feb-06 00:00:00.0000, -6.358666504382503E+07, 2.481706549210389E+08, 1.002486099496819E+08,
2461449.500000000, A.D. 2027-Feb-13 00:00:00.0000, -7.600747099120420E+07, 2.428938854314849E+08, 1.019972405009404E+08,
2461456.500000000, A.D. 2027-Feb-20 00:00:00.0000, -8.824930542922053E+07, 2.370452307250397E+08, 1.035056845027640E+08,
2461463.500000000, A.D. 2027-Feb-27 00:00:00.0000, -1.002813162521483E+08, 2.306330140607540E+08, 1.047680085580968E+08,
2461470.500000000, A.D. 2027-Mar-06 00:00:00.0000, -1.120726461772486E+08, 2.236673017829476E+08, 1.057788560643628E+08,
2461477.500000000, A.D. 2027-Mar-13 00:00:00.0000, -1.235925498114755E+08, 2.161599265209479E+08, 1.065334881719133E+08,
2461484.500000000, A.D. 2027-Mar-20 00:00:00.0000, -1.348105172024210E+08, 2.081245015155146E+08, 1.070278234092529E+08,
2461491.500000000, A.D. 2027-Mar-27 00:00:00.0000, -1.456964029000449E+08, 1.995764246905146E+08, 1.072584754153436E+08,
2461498.500000000, A.D. 2027-Apr-03 00:00:00.0000, -1.562205594188060E+08, 1.905328716690624E+08, 1.072227882490554E+08,
2461505.500000000, A.D. 2027-Apr-10 00:00:00.0000, -1.663539739962264E+08, 1.810127771053742E+08, 1.069188687608443E+08,
2461512.500000000, A.D. 2027-Apr-17 00:00:00.0000, -1.760684074562353E+08, 1.710368037876520E+08, 1.063456155169917E+08,
2461519.500000000, A.D. 2027-Apr-24 00:00:00.0000, -1.853365338146291E+08, 1.606272990611151E+08, 1.055027437724619E+08,
2461526.500000000, A.D. 2027-May-01 00:00:00.0000, -1.941320789465947E+08, 1.498082383703982E+08, 1.043908060011886E+08,
2461533.500000000, A.D. 2027-May-08 00:00:00.0000, -2.024299565529746E+08, 1.386051566165193E+08, 1.030112075875817E+08,
2461540.500000000, A.D. 2027-May-15 00:00:00.0000, -2.102064014197394E+08, 1.270450684172607E+08, 1.013662175160256E+08,
2461547.500000000, A.D. 2027-May-22 00:00:00.0000, -2.174391000156514E+08, 1.151563750202236E+08, 9.945897367811719E+07,
2461554.500000000, A.D. 2027-May-29 00:00:00.0000, -2.241073135458746E+08, 1.029687569499555E+08, 9.729348212104571E+07,
2461561.500000000, A.D. 2027-Jun-05 00:00:00.0000, -2.301919910780477E+08, 9.051305625048086E+07, 9.487461022445086E+07,
2461568.500000000, A.D. 2027-Jun-12 00:00:00.0000, -2.356758733474484E+08, 7.782114967334905E+07, 9.220807393713541E+07,
2461575.500000000, A.D. 2027-Jun-19 00:00:00.0000, -2.405435862785576E+08, 6.492581299599791E+07, 8.930041903988543E+07,
2461582.500000000, A.D. 2027-Jun-26 00:00:00.0000, -2.447817227703956E+08, 5.186057749187692E+07, 8.615899648261578E+07,
2461589.500000000, A.D. 2027-Jul-03 00:00:00.0000, -2.483789116005228E+08, 3.865957997679938E+07, 8.279193196833442E+07,
2461596.500000000, A.D. 2027-Jul-10 00:00:00.0000, -2.513258725855652E+08, 2.535740796840440E+07, 7.920809005641291E+07,
2461603.500000000, A.D. 2027-Jul-17 00:00:00.0000, -2.536154573418895E+08, 1.198894153119589E+07, 7.541703313982286E+07,
2461610.500000000, A.D. 2027-Jul-24 00:00:00.0000, -2.552426750879272E+08, -1.410806594408922E+06, 7.142897571610758E+07,
2461617.500000000, A.D. 2027-Jul-31 00:00:00.0000, -2.562047028995276E+08, -1.480685066705781E+07, 6.725473444117983E+07,
2461624.500000000, A.D. 2027-Aug-07 00:00:00.0000, -2.565008806673011E+08, -2.816438861561351E+07, 6.290567464293046E+07,
2461631.500000000, A.D. 2027-Aug-14 00:00:00.0000, -2.561326933290423E+08, -4.144895436053374E+07, 5.839365409509446E+07,
2461638.500000000, A.D. 2027-Aug-21 00:00:00.0000, -2.551037402536710E+08, -5.462656763867117E+07, 5.373096436552148E+07,
2461645.500000000, A.D. 2027-Aug-28 00:00:00.0000, -2.534196890434529E+08, -6.766387872441626E+07, 4.893027018778183E+07,
2461652.500000000, A.D. 2027-Sep-04 00:00:00.0000, -2.510882157983677E+08, -8.052830427096751E+07, 4.400454783203582E+07,
2461659.500000000, A.D. 2027-Sep-11 00:00:00.0000, -2.481189342473533E+08, -9.318815382311836E+07, 3.896702319837125E+07,
2461666.500000000, A.D. 2027-Sep-18 00:00:00.0000, -2.445233147629515E+08, -1.056127467155069E+08, 3.383111019658937E+07,
2461673.500000000, A.D. 2027-Sep-25 00:00:00.0000, -2.403145942751194E+08, -1.177725186590790E+08, 2.861034997802998E+07,
2461680.500000000, A.D. 2027-Oct-02 00:00:00.0000, -2.355076782877354E+08, -1.296391173911036E+08, 2.331835155937857E+07,
2461687.500000000, A.D. 2027-Oct-09 00:00:00.0000, -2.301190362716420E+08, -1.411854870087380E+08, 1.796873433736844E+07,
2461694.500000000, A.D. 2027-Oct-16 00:00:00.0000, -2.241665917040569E+08, -1.523859408718502E+08, 1.257507294399375E+07,
2461701.500000000, A.D. 2027-Oct-23 00:00:00.0000, -2.176696078578657E+08, -1.632162230858730E+08, 7.150844820669867E+06,
2461708.500000000, A.D. 2027-Oct-30 00:00:00.0000, -2.106485703059501E+08, -1.736535580924309E+08, 1.709380855580807E+06,
2461715.500000000, A.D. 2027-Nov-06 00:00:00.0000, -2.031250685644130E+08, -1.836766875000737E+08, -3.736180463152140E+06,
2461722.500000000, A.D. 2027-Nov-13 00:00:00.0000, -1.951216800201764E+08, -1.932658966185139E+08, -9.172935178660467E+06,
2461729.500000000, A.D. 2027-Nov-20 00:00:00.0000, -1.866618543057444E+08, -2.024030333906500E+08, -1.458825259778564E+07,
2461736.500000000, A.D. 2027-Nov-27 00:00:00.0000, -1.777697974721561E+08, -2.110715173617860E+08, -1.996981045920455E+07,
2461743.500000000, A.D. 2027-Dec-04 00:00:00.0000, -1.684703588450740E+08, -2.192563384433242E+08, -2.530562625798215E+07,
2461750.500000000, A.D. 2027-Dec-11 00:00:00.0000, -1.587889218622174E+08, -2.269440471542343E+08, -3.058408478342049E+07,
2461757.500000000, A.D. 2027-Dec-18 00:00:00.0000, -1.487512992482466E+08, -2.341227374341919E+08, -3.579396199390371E+07,
2461764.500000000, A.D. 2027-Dec-25 00:00:00.0000, -1.383836328957682E+08, -2.407820228119067E+08, -4.092444535190693E+07,
2461771.500000000, A.D. 2028-Jan-01 00:00:00.0000, -1.277122988314119E+08, -2.469130067039678E+08, -4.596515076421878E+07,
$$EOE